{
  "type": "FeatureCollection",
  "features": [
    {
      "type": "Feature",
      "properties": {
        "norad_id": 30619,
        "name": "FENGYUN 1C DEB",
        "group": "fengyun-1c-debris",
        "lat": 49.17924082689418,
        "lon": -3.2903218451290566,
        "alt_km": 603.9439180851268,
        "timestamp": "2025-12-09T09:46:47.923377+00:00",
        "meta_object_name": "FENGYUN 1C DEB",
        "meta_object_id": "1999-025ANA",
        "meta_epoch": "2025-12-08T06:53:39.645024",
        "meta_mean_motion": 14.4107856,
        "meta_eccentricity": 0.02160865,
        "meta_inclination": 98.2965,
        "meta_ra_of_asc_node": 5.3467,
        "meta_arg_of_pericenter": 71.8597,
        "meta_mean_anomaly": 290.5992,
        "meta_ephemeris_type": 0,
        "meta_classification_type": "U",
        "meta_norad_cat_id": 30619,
        "meta_element_set_no": 999,
        "meta_rev_at_epoch": 98885,
        "meta_bstar": 0.00052140214,
        "meta_mean_motion_dot": 2.168e-05,
        "meta_mean_motion_ddot": 0,
        "tle_line1": "1 30619U 99025ANA 25342.28726441  .00002168  00000+0  52140-3 0  9995",
        "tle_line2": "2 30619  98.2965   5.3467 0216086  71.8597 290.5992 14.41078560988855"
      },
      "geometry": {
        "type": "Point",
        "coordinates": [
          -3.2903218451290566,
          49.17924082689418
        ]
      }
    },
    {
      "type": "Feature",
      "properties": {
        "norad_id": 30621,
        "name": "FENGYUN 1C DEB",
        "group": "fengyun-1c-debris",
        "lat": 57.87142056993205,
        "lon": 121.08068778481329,
        "alt_km": 972.035276558594,
        "timestamp": "2025-12-09T09:46:47.923388+00:00",
        "meta_object_name": "FENGYUN 1C DEB",
        "meta_object_id": "1999-025ANC",
        "meta_epoch": "2025-12-08T08:16:13.408896",
        "meta_mean_motion": 14.03763239,
        "meta_eccentricity": 0.01383279,
        "meta_inclination": 98.6983,
        "meta_ra_of_asc_node": 285.9541,
        "meta_arg_of_pericenter": 318.9679,
        "meta_mean_anomaly": 193.1559,
        "meta_ephemeris_type": 0,
        "meta_classification_type": "U",
        "meta_norad_cat_id": 30621,
        "meta_element_set_no": 999,
        "meta_rev_at_epoch": 95528,
        "meta_bstar": 0.0038114773,
        "meta_mean_motion_dot": 6.493e-05,
        "meta_mean_motion_ddot": 0,
        "tle_line1": "1 30621U 99025ANC 25342.34459964  .00006493  00000+0  38115-2 0  9998",
        "tle_line2": "2 30621  98.6983 285.9541 0138327 318.9679 193.1559 14.03763239955288"
      },
      "geometry": {
        "type": "Point",
        "coordinates": [
          121.08068778481329,
          57.87142056993205
        ]
      }
    },
    {
      "type": "Feature",
      "properties": {
        "norad_id": 30622,
        "name": "FENGYUN 1C DEB",
        "group": "fengyun-1c-debris",
        "lat": 38.8102358098839,
        "lon": -14.933121966511445,
        "alt_km": 734.9537506344959,
        "timestamp": "2025-12-09T09:46:47.923399+00:00",
        "meta_object_name": "FENGYUN 1C DEB",
        "meta_object_id": "1999-025AND",
        "meta_epoch": "2025-12-08T19:20:02.156928",
        "meta_mean_motion": 14.31104654,
        "meta_eccentricity": 0.00724429,
        "meta_inclination": 101.002,
        "meta_ra_of_asc_node": 353.3088,
        "meta_arg_of_pericenter": 25.6143,
        "meta_mean_anomaly": 154.4695,
        "meta_ephemeris_type": 0,
        "meta_classification_type": "U",
        "meta_norad_cat_id": 30622,
        "meta_element_set_no": 999,
        "meta_rev_at_epoch": 68741,
        "meta_bstar": 0.0048519344,
        "meta_mean_motion_dot": 0.00013129,
        "meta_mean_motion_ddot": 0,
        "tle_line1": "1 30622U 99025AND 25342.80558052  .00013129  00000+0  48519-2 0  9991",
        "tle_line2": "2 30622 101.0020 353.3088 0072442  25.6143 154.4695 14.31104654687418"
      },
      "geometry": {
        "type": "Point",
        "coordinates": [
          -14.933121966511445,
          38.8102358098839
        ]
      }
    },
    {
      "type": "Feature",
      "properties": {
        "norad_id": 30623,
        "name": "FENGYUN 1C DEB",
        "group": "fengyun-1c-debris",
        "lat": 16.33545740497133,
        "lon": 159.9926725423188,
        "alt_km": 1187.320502571477,
        "timestamp": "2025-12-09T09:46:47.923410+00:00",
        "meta_object_name": "FENGYUN 1C DEB",
        "meta_object_id": "1999-025ANE",
        "meta_epoch": "2025-12-07T10:52:49.819296",
        "meta_mean_motion": 13.29332786,
        "meta_eccentricity": 0.04038405,
        "meta_inclination": 98.8232,
        "meta_ra_of_asc_node": 160.9262,
        "meta_arg_of_pericenter": 120.8575,
        "meta_mean_anomaly": 273.4368,
        "meta_ephemeris_type": 0,
        "meta_classification_type": "U",
        "meta_norad_cat_id": 30623,
        "meta_element_set_no": 999,
        "meta_rev_at_epoch": 91146,
        "meta_bstar": 0.00084113438,
        "meta_mean_motion_dot": 5.77e-06,
        "meta_mean_motion_ddot": 0,
        "tle_line1": "1 30623U 99025ANE 25341.45335439  .00000577  00000+0  84113-3 0  9998",
        "tle_line2": "2 30623  98.8232 160.9262 0403840 120.8575 273.4368 13.29332786911469"
      },
      "geometry": {
        "type": "Point",
        "coordinates": [
          159.9926725423188,
          16.33545740497133
        ]
      }
    },
    {
      "type": "Feature",
      "properties": {
        "norad_id": 30624,
        "name": "FENGYUN 1C DEB",
        "group": "fengyun-1c-debris",
        "lat": -46.75189614090597,
        "lon": 74.72959799528803,
        "alt_km": 680.7520586511018,
        "timestamp": "2025-12-09T09:46:47.923421+00:00",
        "meta_object_name": "FENGYUN 1C DEB",
        "meta_object_id": "1999-025ANF",
        "meta_epoch": "2025-12-08T04:25:50.912256",
        "meta_mean_motion": 14.61976094,
        "meta_eccentricity": 0.00216338,
        "meta_inclination": 98.8861,
        "meta_ra_of_asc_node": 63.8416,
        "meta_arg_of_pericenter": 281.734,
        "meta_mean_anomaly": 78.1432,
        "meta_ephemeris_type": 0,
        "meta_classification_type": "U",
        "meta_norad_cat_id": 30624,
        "meta_element_set_no": 999,
        "meta_rev_at_epoch": 97429,
        "meta_bstar": 0.0057004197,
        "meta_mean_motion_dot": 0.00028724,
        "meta_mean_motion_ddot": 0,
        "tle_line1": "1 30624U 99025ANF 25342.18461704  .00028724  00000+0  57004-2 0  9997",
        "tle_line2": "2 30624  98.8861  63.8416 0021633 281.7340  78.1432 14.61976094974298"
      },
      "geometry": {
        "type": "Point",
        "coordinates": [
          74.72959799528803,
          -46.75189614090597
        ]
      }
    },
    {
      "type": "Feature",
      "properties": {
        "norad_id": 30625,
        "name": "FENGYUN 1C DEB",
        "group": "fengyun-1c-debris",
        "lat": 24.413505979650832,
        "lon": 123.30991069138123,
        "alt_km": 786.4925619303986,
        "timestamp": "2025-12-09T09:46:47.923432+00:00",
        "meta_object_name": "FENGYUN 1C DEB",
        "meta_object_id": "1999-025ANG",
        "meta_epoch": "2025-12-08T19:43:51.540384",
        "meta_mean_motion": 14.41330045,
        "meta_eccentricity": 0.00504414,
        "meta_inclination": 98.9286,
        "meta_ra_of_asc_node": 298.6066,
        "meta_arg_of_pericenter": 314.2133,
        "meta_mean_anomaly": 45.4917,
        "meta_ephemeris_type": 0,
        "meta_classification_type": "U",
        "meta_norad_cat_id": 30625,
        "meta_element_set_no": 999,
        "meta_rev_at_epoch": 96636,
        "meta_bstar": 0.0076828589,
        "meta_mean_motion_dot": 0.00025286,
        "meta_mean_motion_ddot": 0,
        "tle_line1": "1 30625U 99025ANG 25342.82212431  .00025286  00000+0  76829-2 0  9996",
        "tle_line2": "2 30625  98.9286 298.6066 0050441 314.2133  45.4917 14.41330045966363"
      },
      "geometry": {
        "type": "Point",
        "coordinates": [
          123.30991069138123,
          24.413505979650832
        ]
      }
    },
    {
      "type": "Feature",
      "properties": {
        "norad_id": 30628,
        "name": "FENGYUN 1C DEB",
        "group": "fengyun-1c-debris",
        "lat": -31.316189612618768,
        "lon": 72.9201084999432,
        "alt_km": 659.4589001215327,
        "timestamp": "2025-12-09T09:46:47.923442+00:00",
        "meta_object_name": "FENGYUN 1C DEB",
        "meta_object_id": "1999-025ANK",
        "meta_epoch": "2025-12-08T11:33:49.347360",
        "meta_mean_motion": 14.68828958,
        "meta_eccentricity": 0.00232879,
        "meta_inclination": 99.3408,
        "meta_ra_of_asc_node": 257.6109,
        "meta_arg_of_pericenter": 261.3508,
        "meta_mean_anomaly": 98.5055,
        "meta_ephemeris_type": 0,
        "meta_classification_type": "U",
        "meta_norad_cat_id": 30628,
        "meta_element_set_no": 999,
        "meta_rev_at_epoch": 98408,
        "meta_bstar": 0.0033844785,
        "meta_mean_motion_dot": 0.00019838,
        "meta_mean_motion_ddot": 0,
        "tle_line1": "1 30628U 99025ANK 25342.48182115  .00019838  00000+0  33845-2 0  9993",
        "tle_line2": "2 30628  99.3408 257.6109 0023287 261.3508  98.5055 14.68828958984081"
      },
      "geometry": {
        "type": "Point",
        "coordinates": [
          72.9201084999432,
          -31.316189612618768
        ]
      }
    }
  ]
}